{
  "norad_id": 44793,
  "name": "BEIDOU-3 M22",
  "history": [
    {
      "epoch": "2026-03-27T11:08:27.250656Z",
      "apogee_km": 21548.76533602235,
      "perigee_km": 21507.15957422272,
      "latitude_deg": 4.0893419254333713e-05,
      "longitude_deg": -49.291228841080496,
      "height_km": 21512.55514637806,
      "semi_major_axis_km": 27906.09945512253,
      "eccentricity": 0.00074546,
      "inclination_deg": 54.0095,
      "raan_deg": 302.7034,
      "arg_perigee_deg": 41.3303,
      "mean_anomaly_deg": 318.7622,
      "mean_motion_rev_day": 1.86231892
    }
  ]
}